STARLINK-32319          
1 61528U 24183V   26068.46665027  .00000201  00000+0  18934-4 0  9999
2 61528  53.1602 143.8044 0001337  64.9227 295.1913 15.30184615 79616
NUSHSAT1                
1 63211U 25052B   26068.64700493  .00023034  00000+0  74857-3 0  9997
2 63211  97.4095 325.7239 0005501  84.7512 275.4357 15.31903202 54882
